COMMENT,ORIGINATOR,NORAD_CAT_ID,OBJECT_NAME,OBJECT_TYPE,CLASSIFICATION_TYPE,INTLDES,EPOCH,EPOCH_MICROSECONDS,MEAN_MOTION,ECCENTRICITY,INCLINATION,RA_OF_ASC_NODE,ARG_OF_PERICENTER,MEAN_ANOMALY,EPHEMERIS_TYPE,ELEMENT_SET_NO,REV_AT_EPOCH,BSTAR,MEAN_MOTION_DOT,MEAN_MOTION_DDOT,FILE,TLE_LINE0,TLE_LINE1,TLE_LINE2,OBJECT_ID,OBJECT_NUMBER,SEMIMAJOR_AXIS,PERIOD,APOGEE,PERIGEE,DECAYED
"GENERATED VIA SPACETRACK.ORG API","18 SPCS","48888","SPACEBEE-103","PAYLOAD","U","21059K","2024-01-11 21:21:53","513280","15.61658867","0.0004425","97.6066","163.0645","277.9976","82.0779","0","999","14158","0.0019887","0.00174499","0","4159545","0 SPACEBEE-103","1 48888U 21059K   24011.89020270  .00174499  00000-0  19887-2 0  9998","2 48888  97.6066 163.0645 0004425 277.9976  82.0779 15.61658867141584","2021-059K","48888","6761.002","92.210","385.859","379.875","0"
"GENERATED VIA SPACETRACK.ORG API","18 SPCS","48888","SPACEBEE-103","PAYLOAD","U","21059K","2024-01-11 22:54:09","707328","15.61679189","0.0004463","97.6067","163.1329","278.2587","81.8164","0","999","14159","0.001946","0.00170807","0","4159789","0 SPACEBEE-103","1 48888U 21059K   24011.95427902  .00170807  00000-0  19460-2 0  9994","2 48888  97.6067 163.1329 0004463 278.2587  81.8164 15.61679189141595","2021-059K","48888","6760.943","92.208","385.826","379.791","0"
"GENERATED VIA SPACETRACK.ORG API","18 SPCS","48888","SPACEBEE-103","PAYLOAD","U","21059K","2024-01-12 09:40:00","820128","15.61837613","0.0004457","97.607","163.6141","277.6796","82.3955","0","999","14166","0.0019113","0.00168742","0","4160109","0 SPACEBEE-103","1 48888U 21059K   24012.40278727  .00168742  00000-0  19113-2 0  9994","2 48888  97.6070 163.6141 0004457 277.6796  82.3955 15.61837613141664","2021-059K","48888","6760.486","92.199","385.364","379.338","0"
"GENERATED VIA SPACETRACK.ORG API","18 SPCS","48888","SPACEBEE-103","PAYLOAD","U","21059K","2024-01-12 20:25:48","139968","15.61988776","0.000448","97.6068","164.0966","278.9355","81.1394","0","999","14173","0.0019401","0.00172363","0","4160399","0 SPACEBEE-103","1 48888U 21059K   24012.85125162  .00172363  00000-0  19401-2 0  9991","2 48888  97.6068 164.0966 0004480 278.9355  81.1394 15.61988776141731","2021-059K","48888","6760.050","92.190","384.943","378.886","0"
"GENERATED VIA SPACETRACK.ORG API","18 SPCS","48888","SPACEBEE-103","PAYLOAD","U","21059K","2024-01-12 23:30:18","91584","15.62033161","0.0004465","97.6068","164.2343","278.1099","81.9651","0","999","14175","0.0019307","0.00171809","0","4160643","0 SPACEBEE-103","1 48888U 21059K   24012.97937606  .00171809  00000-0  19307-2 0  9997","2 48888  97.6068 164.2343 0004465 278.1099  81.9651 15.62033161141758","2021-059K","48888","6759.922","92.188","384.805","378.769","0"
"GENERATED VIA SPACETRACK.ORG API","18 SPCS","48888","SPACEBEE-103","PAYLOAD","U","21059K","2024-01-13 08:43:46","44768","15.6216979","0.0004413","97.6069","164.6471","276.7686","83.3069","0","999","14181","0.0019409","0.00173668","0","4160970","0 SPACEBEE-103","1 48888U 21059K   24013.36372737  .00173668  00000-0  19409-2 0  9997","2 48888  97.6069 164.6471 0004413 276.7686  83.3069 15.62169790141818","2021-059K","48888","6759.528","92.179","384.376","378.410","0"
"GENERATED VIA SPACETRACK.ORG API","18 SPCS","48888","SPACEBEE-103","PAYLOAD","U","21059K","2024-01-13 22:33:52","650144","15.62373198","0.0004323","97.607","165.2667","277.0551","83.0215","0","999","14190","0.0020435","0.00184539","0","4161473","0 SPACEBEE-103","1 48888U 21059K   24013.94019271  .00184539  00000-0  20435-2 0  9992","2 48888  97.6070 165.2667 0004323 277.0551  83.0215 15.62373198141908","2021-059K","48888","6758.941","92.167","383.728","377.884","0"
"GENERATED VIA SPACETRACK.ORG API","18 SPCS","48888","SPACEBEE-103","PAYLOAD","U","21059K","2024-01-14 09:19:26","417280","15.62540502","0.0004349","97.6072","165.7483","274.4983","85.5778","0","999","14197","0.0020153","0.00183142","0","4161833","0 SPACEBEE-103","1 48888U 21059K   24014.38850020  .00183142  00000-0  20153-2 0  9992","2 48888  97.6072 165.7483 0004349 274.4983  85.5778 15.62540502141972","2021-059K","48888","6758.459","92.158","383.263","377.384","0"
"GENERATED VIA SPACETRACK.ORG API","18 SPCS","48888","SPACEBEE-103","PAYLOAD","U","21059K","2024-01-14 23:09:20","568096","15.62781145","0.0004429","97.6076","166.3683","275.4714","84.6038","0","999","14206","0.0023131","0.00212969","0","4162316","0 SPACEBEE-103","1 48888U 21059K   24014.96482139  .00212969  00000-0  23131-2 0  9997","2 48888  97.6076 166.3683 0004429 275.4714  84.6038 15.62781145142067","2021-059K","48888","6757.765","92.143","382.623","376.637","0"
"GENERATED VIA SPACETRACK.ORG API","18 SPCS","48888","SPACEBEE-103","PAYLOAD","U","21059K","2024-01-15 08:22:32","351520","15.62942609","0.0004454","97.6077","166.7813","276.2571","83.818","0","999","14212","0.0022402","0.00207409","0","4162722","0 SPACEBEE-103","1 48888U 21059K   24015.34898555  .00207409  00000-0  22402-2 0  9996","2 48888  97.6077 166.7813 0004454 276.2571  83.8180 15.62942609142125","2021-059K","48888","6757.299","92.134","382.174","376.155","0"
"GENERATED VIA SPACETRACK.ORG API","18 SPCS","48888","SPACEBEE-103","PAYLOAD","U","21059K","2024-01-15 23:44:24","749376","15.6319078","0.00043","97.6069","167.47","275.528","84.5487","0","999","14222","0.0020536","0.0019159","0","4163165","0 SPACEBEE-103","1 48888U 21059K   24015.98917534  .00191590  00000-0  20536-2 0  9994","2 48888  97.6069 167.4700 0004300 275.5280  84.5487 15.63190780142223","2021-059K","48888","6756.584","92.119","381.354","375.544","0"
"GENERATED VIA SPACETRACK.ORG API","18 SPCS","48888","SPACEBEE-103","PAYLOAD","U","21059K","2024-01-16 08:57:27","811584","15.6335807","0.0004267","97.6067","167.8833","276.1905","83.8867","0","999","14228","0.0022794","0.00214661","0","4163512","0 SPACEBEE-103","1 48888U 21059K   24016.37323856  .00214661  00000-0  22794-2 0  9999","2 48888  97.6067 167.8833 0004267 276.1905  83.8867 15.63358070142283","2021-059K","48888","6756.102","92.109","380.850","375.084","0"
"GENERATED VIA SPACETRACK.ORG API","18 SPCS","48888","SPACEBEE-103","PAYLOAD","U","21059K","2024-01-16 08:57:27","811584","15.6335807","0.0004267","97.6067","167.8833","276.1905","83.8867","0","999","14228","0.0022794","0.00214661","0","4163580","0 SPACEBEE-103","1 48888U 21059K   24016.37323856  .00214661  00000-0  22794-2 0  9999","2 48888  97.6067 167.8833 0004267 276.1905  83.8867 15.63358070142283","2021-059K","48888","6756.102","92.109","380.850","375.084","0"
"GENERATED VIA SPACETRACK.ORG API","18 SPCS","48888","SPACEBEE-103","PAYLOAD","U","21059K","2024-01-16 21:14:46","893408","15.63551852","0.0004163","97.6065","168.4345","276.1576","83.9207","0","999","14236","0.0021103","0.0019987","0","4163878","0 SPACEBEE-103","1 48888U 21059K   24016.88526497  .00199870  00000-0  21103-2 0  9998","2 48888  97.6065 168.4345 0004163 276.1576  83.9207 15.63551852142366","2021-059K","48888","6755.544","92.098","380.221","374.596","0"
"GENERATED VIA SPACETRACK.ORG API","18 SPCS","48888","SPACEBEE-103","PAYLOAD","U","21059K","2024-01-16 22:46:56","358624","15.63580945","0.0004163","97.6066","168.5034","276.3693","83.7091","0","999","14237","0.0021567","0.00204618","0","4164132","0 SPACEBEE-103","1 48888U 21059K   24016.94926341  .00204618  00000-0  21567-2 0  9998","2 48888  97.6066 168.5034 0004163 276.3693  83.7091 15.63580945142370","2021-059K","48888","6755.460","92.096","380.137","374.513","0"
"GENERATED VIA SPACETRACK.ORG API","18 SPCS","48888","SPACEBEE-103","PAYLOAD","U","21059K","2024-01-17 09:32:00","309120","15.63750998","0.0004117","97.6067","168.9857","277.4579","82.6212","0","999","14244","0.0019976","0.00190447","0","4164412","0 SPACEBEE-103","1 48888U 21059K   24017.39722580  .00190447  00000-0  19976-2 0  9992","2 48888  97.6067 168.9857 0004117 277.4579  82.6212 15.63750998142440","2021-059K","48888","6754.970","92.086","379.616","374.054","0"
"GENERATED VIA SPACETRACK.ORG API","18 SPCS","48888","SPACEBEE-103","PAYLOAD","U","21059K","2024-01-17 17:12:43","454304","15.63864913","0.0004081","97.6062","169.3303","277.1576","82.9218","0","999","14249","0.0020177","0.00193289","0","4164610","0 SPACEBEE-103","1 48888U 21059K   24017.71716961  .00193289  00000-0  20177-2 0  9996","2 48888  97.6062 169.3303 0004081 277.1576  82.9218 15.63864913142497","2021-059K","48888","6754.642","92.080","379.264","373.751","0"
"GENERATED VIA SPACETRACK.ORG API","18 SPCS","48888","SPACEBEE-103","PAYLOAD","U","21059K","2024-01-17 17:12:43","454304","15.63864913","0.0004081","97.6062","169.3303","277.1576","82.9218","0","999","14249","0.0020177","0.00193289","0","4164693","0 SPACEBEE-103","1 48888U 21059K   24017.71716961  .00193289  00000-0  20177-2 0  9996","2 48888  97.6062 169.3303 0004081 277.1576  82.9218 15.63864913142497","2021-059K","48888","6754.642","92.080","379.264","373.751","0"
"GENERATED VIA SPACETRACK.ORG API","18 SPCS","48888","SPACEBEE-103","PAYLOAD","U","21059K","2024-01-18 08:34:03","123840","15.64116217","0.0004095","97.6059","170.0196","277.5974","82.4819","0","999","14259","0.0019442","0.00187964","0","4165274","0 SPACEBEE-103","1 48888U 21059K   24018.35698060  .00187964  00000-0  19442-2 0  9992","2 48888  97.6059 170.0196 0004095 277.5974  82.4819 15.64116217142594","2021-059K","48888","6753.919","92.065","378.549","373.018","0"
"GENERATED VIA SPACETRACK.ORG API","18 SPCS","48888","SPACEBEE-103","PAYLOAD","U","21059K","2024-01-18 22:23:07","576512","15.64333765","0.0004084","97.6055","170.6405","277.6384","82.441","0","999","14268","0.0020128","0.00196472","0","4165541","0 SPACEBEE-103","1 48888U 21059K   24018.93272658  .00196472  00000-0  20128-2 0  9994","2 48888  97.6055 170.6405 0004084 277.6384  82.4410 15.64333765142689","2021-059K","48888","6753.293","92.052","377.916","372.399","0"
